{"spkid": "54099342", "covariance": {"epoch": "2459795.5", "labels": ["e", "q", "tp", "node", "peri", "i"], "data": [["1.180924888569551E-13", "-2.455694415997348E-13", "-1.356411241891611E-11", "5.420811009106246E-12", "-4.07678518217634E-11", "-1.270984618946374E-12"], ["-2.455694415997348E-13", "5.106694917419564E-13", "2.827252533829894E-11", "-1.125974535284132E-11", "8.480913127007496E-11", "2.610296793412515E-12"], ["-1.356411241891611E-11", "2.827252533829894E-11", "1.854755960150423E-9", "-5.515134446555624E-10", "4.825997048098459E-9", "-3.654007337329154E-12"], ["5.420811009106246E-12", "-1.125974535284132E-11", "-5.515134446555624E-10", "5.755373687505955E-9", "-7.302840401762717E-9", "-1.679833608838215E-9"], ["-4.07678518217634E-11", "8.480913127007496E-11", "4.825997048098459E-9", "-7.302840401762717E-9", "1.958962248950236E-8", "1.945066513660089E-9"], ["-1.270984618946374E-12", "2.610296793412515E-12", "-3.654007337329154E-12", "-1.679833608838215E-9", "1.945066513660089E-9", "5.776236484854682E-10"]], "elements": [{"units": null, "title": "eccentricity", "value": ".6127222657545547", "name": "e", "sigma": 3.43645877113279e-07, "label": "e"}, {"title": "perihelion distance", "value": ".8036722012990105", "units": "au", "sigma": 7.1461142710004e-07, "name": "q", "label": "q"}, {"label": "tp", "name": "tp", "sigma": 4.3066877761807e-05, "title": "time of perihelion passage", "value": "2460240.754994225647", "units": "TDB"}, {"name": "om", "sigma": 7.58641792119704e-05, "units": "deg", "value": "269.9798001454786", "title": "longitude of the ascending node", "label": "node"}, {"label": "peri", "units": "deg", "title": "argument of perihelion", "value": "101.5868773921611", "name": "w", "sigma": 0.000139962932555382}, {"title": "inclination", "value": "3.735025621220029", "units": "deg", "name": "i", "sigma": 2.40338022061735e-05, "label": "i"}]}, "elements": [{"sigma": "3.4449E-7", "name": "e", "value": ".6120640081085135", "title": "eccentricity", "units": null, "label": "e"}, {"title": "semi-major axis", "value": "2.073487298881217", "units": "au", "sigma": "6.284E-9", "name": "a", "label": "a"}, {"units": "au", "value": ".804380351965884", "title": "perihelion distance", "sigma": "7.152E-7", "name": "q", "label": "q"}, {"name": "i", "sigma": "2.405E-5", "units": "deg", "title": "inclination; angle with respect to x-y ecliptic plane", "value": "3.744664838371961", "label": "i"}, {"sigma": "7.5363E-5", "name": "om", "title": "longitude of the ascending node", "value": "269.8943866816335", "units": "deg", "label": "node"}, {"name": "w", "sigma": ".00013992", "units": "deg", "value": "101.6360222784233", "title": "argument of perihelion", "label": "peri"}, {"label": "M", "name": "ma", "sigma": "1.5298E-5", "title": "mean anomaly", "value": "316.9500091471337", "units": "deg"}, {"title": "time of perihelion passage", "value": "2461330.913052043830", "units": "TDB", "sigma": "4.6742E-5", "name": "tp", "label": "tp"}, {"units": "d", "title": "sidereal orbital period", "value": "1090.56233940298", "name": "per", "sigma": "4.9576E-6", "label": "period"}, {"units": "deg/d", "title": "mean motion", "value": ".3301049256818085", "sigma": "1.5006E-9", "name": "n", "label": "n"}, {"units": "au", "value": "3.34259424579655", "title": "aphelion distance", "name": "ad", "sigma": "1.013E-8", "label": "Q"}], "epoch": "2461200.5"}